GAOFEN-11 01            
1 43585U 18063A   26159.22944895  .00012711  00000+0  19076-3 0  9996
2 43585  97.1291 226.1355 0004096  28.8315 331.3165 15.55028601438950
ICESAT-2                
1 43613U 18070A   26159.31529712  .00008743  00000+0  31755-3 0  9991
2 43613  92.0067 288.5835 0005239 119.2870 240.8903 15.28258175431108
HYSIS                   
1 43719U 18096A   26159.27914247  .00001417  00000+0  20033-3 0  9990
2 43719  97.9835 226.0967 0001665 112.2966 247.8421 14.78678618406109
KAZSTSAT                
1 43783U 18099AB  26159.02425464  .00001432  00000+0  12008-3 0  9995
2 43783  97.4264 191.3697 0007813  93.5092 266.7026 14.99841772409938
SAUDISAT 5A             
1 43831U 18102A   26159.32405311  .00005303  00000+0  19683-3 0  9993
2 43831  97.3070 221.0762 0010371 156.7866 203.3845 15.27955866414321
SAUDISAT 5B             
1 43833U 18102C   26159.27892196  .00004874  00000+0  17968-3 0  9996
2 43833  97.3177 224.0855 0010986 159.6240 200.5441 15.28217015414438
GAOFEN-10R              
1 44622U 19066A   26159.31528177  .00001265  00000+0  16221-3 0  9995
2 44622  98.0498 112.8302 0006056 152.3056 207.8480 14.83041577361069
CARTOSAT-3              
1 44804U 19081A   26159.26568852  .00003910  00000+0  18860-3 0  9992
2 44804  97.4302 221.2760 0012270 178.1583 181.9699 15.19219188362113
GAOFEN-12 01            
1 44819U 19082A   26159.29326876  .00000417  00000+0  61126-4 0  9993
2 44819  97.8101 165.9075 0002478  80.9171 279.2322 14.80451362352779
CSG-1                   
1 44873U 19092A   26159.27497154  .00000469  00000+0  65406-4 0  9992
2 44873  97.8888 343.0067 0001451  90.6089 269.5291 14.82157580350151
NEMO-HD                 
1 46277U 20061F   26159.31858152  .00009528  00000+0  20799-3 0  9994
2 46277  97.1922 221.3619 0002604  90.4902 269.6645 15.44414192320613
SENTINEL-6A             
1 46984U 20086A   26159.18482718 -.00000033  00000+0  11960-3 0  9995
2 46984  66.0384 153.7503 0007930 270.3103  89.7003 12.80929771259176
CAS500-1                
1 47932U 21022A   26159.30837897  .00006022  00000+0  28077-3 0  9996
2 47932  97.3907  54.7409 0004156 337.7279  22.3775 15.20231624289411
GAOFEN-12 02            
1 48079U 21026A   26159.30337681  .00000396  00000+0  58919-4 0  9996
2 48079  97.9920 157.5205 0003328 261.4122  98.6712 14.80289357280443
PLEIADES NEO 3          
1 48268U 21034A   26159.27132985  .00000714  00000+0  97349-4 0  9995
2 48268  97.8926 234.1663 0001412  85.2155 274.9219 14.81667563276332
PLEIADES NEO 4          
1 49070U 21073E   26159.23757156  .00001692  00000+0  22160-3 0  9993
2 49070  97.8927 234.1285 0001388  85.3304 274.8067 14.81665465260044
LANDSAT 9               
1 49260U 21088A   26159.20074138  .00000333  00000+0  83991-4 0  9990
2 49260  98.2279 229.4866 0001457  88.4440 271.6926 14.57104692249694
CSG-2                   
1 51444U 22008A   26159.30870765 -.00000136  00000+0 -10498-4 0  9996
2 51444  97.8889 343.0352 0001404  81.6186 278.5186 14.82148433235272
GAOFEN-12 03            
1 52912U 22069A   26159.26407123  .00001515  00000+0  20690-3 0  9997
2 52912  97.8286  47.3588 0001686 110.2854 249.8540 14.80023185213299
SWOT                    
1 54754U 22173A   26159.19937232  .00000015  00000+0  11560-4 0  9991
2 54754  77.6112  47.4434 0000191  94.2215 265.8958 14.00168459177894
GAOFEN-12 04            
1 57654U 23123A   26159.28192525  .00001066  00000+0  14698-3 0  9998
2 57654  97.9129  77.4275 0001786  87.1148 273.0269 14.80211849151317
PARS 1                  
1 59065U 24039Q   26159.25084122  .00011690  00000+0  24477-3 0  9993
2 59065  97.4821 139.8907 0010906 138.3453 221.8628 15.45541841127263
RESURS-P 4              
1 59371U 24061A   26159.31543023  .00003120  00000+0  10320-3 0  9996
2 59371  97.2746 107.3692 0001492 132.2227 227.9142 15.32080577122409
LEGION 1                
1 59625U 24081A   26159.25410458  .00003389  00000+0  17669-3 0  9998
2 59625  97.5014 237.2069 0010324  46.7601 313.4493 15.16604726116180
LEGION 2                
1 59626U 24081B   26159.21798658  .00003768  00000+0  19610-3 0  9995
2 59626  97.5014 237.2689 0011634  15.4862 344.6725 15.16584915116187
ALOS-4 (DAICHI-4)       
1 60182U 24123A   26159.29860851  .00001509  00000+0  20891-3 0  9998
2 60182  97.9240 256.5971 0001635  97.6811 262.4587 14.79467185104564
LEGION 3                
1 60452U 24146A   26159.23523447  .00004272  00000+0  23222-3 0  9995
2 60452  45.0009  78.5632 0006896 113.4282 246.7323 15.15969668100664
LEGION 4                
1 60453U 24146B   26159.23827065  .00003288  00000+0  18166-3 0  9996
2 60453  45.0002 170.4580 0014072 261.8677  98.0605 15.15969366 99510
SENTINEL-2C             
1 60989U 24157A   26159.22148999  .00000108  00000+0  57672-4 0  9997
2 60989  98.5692 234.1300 0001169  79.8462 280.2853 14.30815465 91701
IONOSFERA-M 1           
1 61735U 24199A   26159.26239360  .00000045  00000+0  39750-4 0  9997
2 61735  98.7185  32.5284 0001687 122.4399 237.6943 14.22752678126432
