OBJECT_NAME,OBJECT_ID,EPOCH,MEAN_MOTION,ECCENTRICITY,INCLINATION,RA_OF_ASC_NODE,ARG_OF_PERICENTER,MEAN_ANOMALY,EPHEMERIS_TYPE,CLASSIFICATION_TYPE,NORAD_CAT_ID,ELEMENT_SET_NO,REV_AT_EPOCH,BSTAR,MEAN_MOTION_DOT,MEAN_MOTION_DDOT
GAOFEN-11 01,2018-063A,2026-06-08T05:30:24.389280,15.55028601,.00040965,97.1291,226.1355,28.8315,331.3165,0,U,43585,999,43895,.1907557E-3,.12711E-3,0
ICESAT-2,2018-070A,2026-06-08T07:34:01.671168,15.28258175,.00052392,92.0067,288.5835,119.2870,240.8903,0,U,43613,999,43110,.31755345E-3,.8743E-4,0
HYSIS,2018-096A,2026-06-08T06:41:57.909408,14.78678618,.00016652,97.9835,226.0967,112.2966,247.8421,0,U,43719,999,40610,.20033154E-3,.1417E-4,0
KAZSTSAT,2018-099AB,2026-06-08T00:34:55.600896,14.99841772,.0007813,97.4264,191.3697,93.5092,266.7026,0,U,43783,999,40993,.12008305E-3,.1432E-4,0
SAUDISAT 5A,2018-102A,2026-06-08T07:46:38.188704,15.27955866,.00103719,97.3070,221.0762,156.7866,203.3845,0,U,43831,999,41432,.19683213E-3,.5303E-4,0
SAUDISAT 5B,2018-102C,2026-06-08T06:41:38.857344,15.28217015,.00109867,97.3177,224.0855,159.6240,200.5441,0,U,43833,999,41443,.17968317E-3,.4874E-4,0
GAOFEN-10R,2019-066A,2026-06-08T07:34:00.344928,14.83041577,.0006056,98.0498,112.8302,152.3056,207.8480,0,U,44622,999,36106,.1622126E-3,.1265E-4,0
CARTOSAT-3,2019-081A,2026-06-08T06:22:35.488128,15.19219188,.00122709,97.4302,221.2760,178.1583,181.9699,0,U,44804,999,36211,.1886014E-3,.391E-4,0
GAOFEN-12 01,2019-082A,2026-06-08T07:02:18.420864,14.80451362,.00024781,97.8101,165.9075,80.9171,279.2322,0,U,44819,999,35277,.61126446E-4,.417E-5,0
CSG-1,2019-092A,2026-06-08T06:35:57.541056,14.82157580,.00014518,97.8888,343.0067,90.6089,269.5291,0,U,44873,999,35015,.65405883E-4,.469E-5,0
NEMO-HD,2020-061F,2026-06-08T07:38:45.443328,15.44414192,.00026044,97.1922,221.3619,90.4902,269.6645,0,U,46277,999,32061,.20799138E-3,.9528E-4,0
SENTINEL-6A,2020-086A,2026-06-08T04:26:09.068352,12.80929771,.00079306,66.0384,153.7503,270.3103,89.7003,0,U,46984,999,25917,.11960151E-3,-.33E-6,0
CAS500-1,2021-022A,2026-06-08T07:24:03.943008,15.20231624,.00041566,97.3907,54.7409,337.7279,22.3775,0,U,47932,999,28941,.28076728E-3,.6022E-4,0
GAOFEN-12 02,2021-026A,2026-06-08T07:16:51.756384,14.80289357,.00033282,97.9920,157.5205,261.4122,98.6712,0,U,48079,999,28044,.58918705E-4,.396E-5,0
PLEIADES NEO 3,2021-034A,2026-06-08T06:30:42.899040,14.81667563,.0001412,97.8926,234.1663,85.2155,274.9219,0,U,48268,999,27633,.97348954E-4,.714E-5,0
PLEIADES NEO 4,2021-073E,2026-06-08T05:42:06.182784,14.81665465,.0001388,97.8927,234.1285,85.3304,274.8067,0,U,49070,999,26004,.2216022E-3,.1692E-4,0
LANDSAT 9,2021-088A,2026-06-08T04:49:04.055232,14.57104692,.00014576,98.2279,229.4866,88.4440,271.6926,0,U,49260,999,24969,.83990525E-4,.333E-5,0
CSG-2,2022-008A,2026-06-08T07:24:32.340960,14.82148433,.00014043,97.8889,343.0352,81.6186,278.5186,0,U,51444,999,23527,-.10498087E-4,-.136E-5,0
GAOFEN-12 03,2022-069A,2026-06-08T06:20:15.754272,14.80023185,.00016862,97.8286,47.3588,110.2854,249.8540,0,U,52912,999,21329,.20689626E-3,.1515E-4,0
SWOT,2022-173A,2026-06-08T04:47:05.768448,14.00168459,.00001917,77.6112,47.4434,94.2215,265.8958,0,U,54754,999,17789,.11559568E-4,.15E-6,0
GAOFEN-12 04,2023-123A,2026-06-08T06:45:58.341600,14.80211849,.00017868,97.9129,77.4275,87.1148,273.0269,0,U,57654,999,15131,.14697735E-3,.1066E-4,0
PARS 1,2024-039Q,2026-06-08T06:01:12.681408,15.45541841,.00109068,97.4821,139.8907,138.3453,221.8628,0,U,59065,999,12726,.24477122E-3,.1169E-3,0
RESURS-P 4,2024-061A,2026-06-08T07:34:13.171872,15.32080577,.0001492,97.2746,107.3692,132.2227,227.9142,0,U,59371,999,12240,.10319573E-3,.312E-4,0
LEGION 1,2024-081A,2026-06-08T06:05:54.635712,15.16604726,.00103244,97.5014,237.2069,46.7601,313.4493,0,U,59625,999,11618,.17669143E-3,.3389E-4,0
LEGION 2,2024-081B,2026-06-08T05:13:54.040512,15.16584915,.00116345,97.5014,237.2689,15.4862,344.6725,0,U,59626,999,11618,.19610386E-3,.3768E-4,0
ALOS-4 (DAICHI-4),2024-123A,2026-06-08T07:09:59.775264,14.79467185,.00016357,97.9240,256.5971,97.6811,262.4587,0,U,60182,999,10456,.20891467E-3,.1509E-4,0
LEGION 3,2024-146A,2026-06-08T05:38:44.258208,15.15969668,.00068963,45.0009,78.5632,113.4282,246.7323,0,U,60452,999,10066,.23221524E-3,.4272E-4,0
LEGION 4,2024-146B,2026-06-08T05:43:06.584160,15.15969366,.0014072,45.0002,170.4580,261.8677,98.0605,0,U,60453,999,9951,.18165959E-3,.3288E-4,0
SENTINEL-2C,2024-157A,2026-06-08T05:18:56.735136,14.30815465,.00011694,98.5692,234.1300,79.8462,280.2853,0,U,60989,999,9170,.5767232E-4,.108E-5,0
IONOSFERA-M 1,2024-199A,2026-06-08T06:17:50.807040,14.22752678,.00016874,98.7185,32.5284,122.4399,237.6943,0,U,61735,999,12643,.39750265E-4,.45E-6,0
